*******************************************************************************
Ephemeris / WWW_USER Mon Mar 24 08:10:28 2025 Pasadena, USA      / Horizons    
*******************************************************************************
Target body name: (2018 VC)                       {source: JPL#21}
Center body name: Earth (399)                     {source: DE441}
Center-site name: Mauna Kea
*******************************************************************************
Start time      : A.D. 2018-Dec-22 03:58:00.0000 UT      
Stop  time      : A.D. 2018-Dec-22 16:42:00.0000 UT      
Step-size       : 1 minutes
*******************************************************************************
Target pole/equ : undefined
Target radii    : undefined                                                    
Center geodetic : 204.5278, 19.8260847, 4.21024   {E-lon(deg),Lat(deg),Alt(km)}
Center cylindric: 204.5278, 6006.35451, 2151.0229 {E-lon(deg),Dxy(km),Dz(km)}
Center pole/equ : ITRF93                          {East-longitude positive}
Center radii    : 6378.137, 6378.137, 6356.752 km {Equator_a, b, pole_c}       
Target primary  : Sun
Vis. interferer : MOON (R_eq= 1737.400) km        {source: DE441}
Rel. light bend : Sun                             {source: DE441}
Rel. lght bnd GM: 1.3271E+11 km^3/s^2                                          
Small-body perts: Yes                             {source: SB441-N16}
Atmos refraction: NO (AIRLESS)
RA format       : HMS
Time format     : CAL 
Calendar mode   : Mixed Julian/Gregorian
RTS-only print  : NO       
EOP file        : eop.250321.p250617                                           
EOP coverage    : DATA-BASED 1962-JAN-20 TO 2025-MAR-21. PREDICTS-> 2025-JUN-16
Units conversion: 1 au= 149597870.700 km, c= 299792.458 km/s, 1 day= 86400.0 s 
Table cut-offs 1: Elevation (-90.0deg=NO ),Airmass (>38.000=NO), Daylight (YES)
Table cut-offs 2: Solar elongation (  0.0,180.0=NO ),Local Hour Angle( 0.0=NO )
Table cut-offs 3: RA/DEC angular rate (     0.0=NO )                           
*******************************************************************************
Initial IAU76/J2000 heliocentric ecliptic osculating elements (au, days, deg.):
  EPOCH=  2458962.5 ! 2020-Apr-23.00 (TDB)         Residual RMS= .087367       
   EC= .1691367762722357   QR= .9358500167919792   TP= 2458809.0997793972      
   OM= 36.58853997425776   W=  304.3228784920618   IN= 3.701146998496158       
  Equivalent ICRF heliocentric cartesian coordinates (au, au/d):
   X=-6.479543737333916E-01  Y= 9.538692942598190E-01  Z= 5.016232001756915E-01
  VX=-1.316843360643849E-02 VY=-5.467047892625660E-03 VZ=-2.149198049185293E-03
Asteroid physical parameters (km, seconds, rotational period in hours):        
   GM= n.a.                RAD= n.a.               ROTPER= n.a.                
   H= 26.34                G= .150                 B-V= n.a.                   
                           ALBEDO= n.a.            STYP= n.a.                  
*******************************************************************************
 Date__(UT)__HR:MN     R.A._________(ICRF)_________DEC
******************************************************
$$SOE
 2018-Dec-22 14:13  m  03 05 55.717440 +34 29 33.93328
 2018-Dec-22 14:14  m  03 05 55.780771 +34 29 33.64345
 2018-Dec-22 14:15  m  03 05 55.844167 +34 29 33.35372
 2018-Dec-22 14:16  m  03 05 55.907627 +34 29 33.06409
 2018-Dec-22 14:17  m  03 05 55.971152 +34 29 32.77458
 2018-Dec-22 14:18  m  03 05 56.034741 +34 29 32.48518
 2018-Dec-22 14:19  m  03 05 56.098395 +34 29 32.19589
 2018-Dec-22 14:20  m  03 05 56.162114 +34 29 31.90671
 2018-Dec-22 14:21  m  03 05 56.225896 +34 29 31.61765
 2018-Dec-22 14:22  m  03 05 56.289743 +34 29 31.32872
 2018-Dec-22 14:23  m  03 05 56.353654 +34 29 31.03990
 2018-Dec-22 14:24  m  03 05 56.417629 +34 29 30.75120
 2018-Dec-22 14:25  m  03 05 56.481668 +34 29 30.46263
 2018-Dec-22 14:26  m  03 05 56.545771 +34 29 30.17419
 2018-Dec-22 14:27  m  03 05 56.609938 +34 29 29.88588
 2018-Dec-22 14:28  m  03 05 56.674168 +34 29 29.59769
 2018-Dec-22 14:29  m  03 05 56.738463 +34 29 29.30964
 2018-Dec-22 14:30  m  03 05 56.802821 +34 29 29.02172
 2018-Dec-22 14:31  m  03 05 56.867242 +34 29 28.73394
 2018-Dec-22 14:32  m  03 05 56.931727 +34 29 28.44630
 2018-Dec-22 14:33  m  03 05 56.996275 +34 29 28.15880
 2018-Dec-22 14:34  m  03 05 57.060886 +34 29 27.87144
 2018-Dec-22 14:35  m  03 05 57.125561 +34 29 27.58422
 2018-Dec-22 14:36  m  03 05 57.190299 +34 29 27.29715
 2018-Dec-22 14:37  s  03 05 57.255099 +34 29 27.01023
 2018-Dec-22 14:38  m  03 05 57.319963 +34 29 26.72346
 2018-Dec-22 14:39  m  03 05 57.384890 +34 29 26.43684
 2018-Dec-22 14:40  m  03 05 57.449879 +34 29 26.15037
 2018-Dec-22 14:41  m  03 05 57.514930 +34 29 25.86406
 2018-Dec-22 14:42  m  03 05 57.580045 +34 29 25.57791
 2018-Dec-22 14:43  m  03 05 57.645221 +34 29 25.29191
 2018-Dec-22 14:44  m  03 05 57.710460 +34 29 25.00608
 2018-Dec-22 14:45  m  03 05 57.775762 +34 29 24.72041
 2018-Dec-22 14:46  m  03 05 57.841125 +34 29 24.43490
 2018-Dec-22 14:47  m  03 05 57.906550 +34 29 24.14956
 2018-Dec-22 14:48  m  03 05 57.972038 +34 29 23.86439
 2018-Dec-22 14:49  m  03 05 58.037587 +34 29 23.57939
 2018-Dec-22 14:50  m  03 05 58.103197 +34 29 23.29456
 2018-Dec-22 14:51  m  03 05 58.168870 +34 29 23.00991
 2018-Dec-22 14:52  m  03 05 58.234604 +34 29 22.72543
 2018-Dec-22 14:53  m  03 05 58.300399 +34 29 22.44113
 2018-Dec-22 14:54  m  03 05 58.366255 +34 29 22.15701
 2018-Dec-22 14:55  m  03 05 58.432173 +34 29 21.87308
 2018-Dec-22 14:56  m  03 05 58.498152 +34 29 21.58932
 2018-Dec-22 14:57  m  03 05 58.564192 +34 29 21.30575
 2018-Dec-22 14:58  m  03 05 58.630292 +34 29 21.02237
 2018-Dec-22 14:59  m  03 05 58.696453 +34 29 20.73918
 2018-Dec-22 15:00  m  03 05 58.762675 +34 29 20.45617
 2018-Dec-22 15:01  m  03 05 58.828957 +34 29 20.17337
 2018-Dec-22 15:02  m  03 05 58.895300 +34 29 19.89075
 2018-Dec-22 15:03  m  03 05 58.961702 +34 29 19.60833
 2018-Dec-22 15:04  m  03 05 59.028165 +34 29 19.32611
 2018-Dec-22 15:05  m  03 05 59.094688 +34 29 19.04409
 2018-Dec-22 15:06  m  03 05 59.161271 +34 29 18.76227
 2018-Dec-22 15:07  m  03 05 59.227913 +34 29 18.48065
 2018-Dec-22 15:08  m  03 05 59.294615 +34 29 18.19924
 2018-Dec-22 15:09  m  03 05 59.361377 +34 29 17.91804
 2018-Dec-22 15:10  m  03 05 59.428197 +34 29 17.63705
 2018-Dec-22 15:11  m  03 05 59.495077 +34 29 17.35626
 2018-Dec-22 15:12  m  03 05 59.562016 +34 29 17.07569
 2018-Dec-22 15:13  m  03 05 59.629014 +34 29 16.79533
 2018-Dec-22 15:14  m  03 05 59.696071 +34 29 16.51519
 2018-Dec-22 15:15  m  03 05 59.763187 +34 29 16.23527
 2018-Dec-22 15:16  m  03 05 59.830361 +34 29 15.95557
 2018-Dec-22 15:17  m  03 05 59.897593 +34 29 15.67608
 2018-Dec-22 15:18  m  03 05 59.964884 +34 29 15.39682
 2018-Dec-22 15:19  m  03 06 00.032233 +34 29 15.11779
 2018-Dec-22 15:20  m  03 06 00.099640 +34 29 14.83898
 2018-Dec-22 15:21  m  03 06 00.167105 +34 29 14.56040
 2018-Dec-22 15:22  m  03 06 00.234627 +34 29 14.28205
 2018-Dec-22 15:23  m  03 06 00.302207 +34 29 14.00393
 2018-Dec-22 15:24  m  03 06 00.369844 +34 29 13.72605
 2018-Dec-22 15:25  m  03 06 00.437539 +34 29 13.44840
 2018-Dec-22 15:26  m  03 06 00.505291 +34 29 13.17099
 2018-Dec-22 15:27  m  03 06 00.573100 +34 29 12.89382
 2018-Dec-22 15:28  m  03 06 00.640965 +34 29 12.61688
 2018-Dec-22 15:29  m  03 06 00.708887 +34 29 12.34019
 2018-Dec-22 15:30  m  03 06 00.776866 +34 29 12.06375
 2018-Dec-22 15:31  m  03 06 00.844901 +34 29 11.78754
 2018-Dec-22 15:32  m  03 06 00.912993 +34 29 11.51159
 2018-Dec-22 15:33  m  03 06 00.981140 +34 29 11.23588
 2018-Dec-22 15:34 Am  03 06 01.049344 +34 29 10.96043
 2018-Dec-22 15:35 Am  03 06 01.117603 +34 29 10.68523
 2018-Dec-22 15:36 Am  03 06 01.185918 +34 29 10.41028
 2018-Dec-22 15:37 Am  03 06 01.254288 +34 29 10.13559
 2018-Dec-22 15:38 Am  03 06 01.322713 +34 29 09.86115
 2018-Dec-22 15:39 Am  03 06 01.391194 +34 29 09.58697
 2018-Dec-22 15:40 Am  03 06 01.459730 +34 29 09.31306
 2018-Dec-22 15:41 Am  03 06 01.528320 +34 29 09.03940
 2018-Dec-22 15:42 Am  03 06 01.596965 +34 29 08.76601
 2018-Dec-22 15:43 Am  03 06 01.665665 +34 29 08.49289
 2018-Dec-22 15:44 Am  03 06 01.734419 +34 29 08.22003
 2018-Dec-22 15:45 Am  03 06 01.803227 +34 29 07.94744
 2018-Dec-22 15:46 Am  03 06 01.872088 +34 29 07.67513
 2018-Dec-22 15:47 Am  03 06 01.941004 +34 29 07.40308
 2018-Dec-22 15:48 Am  03 06 02.009974 +34 29 07.13131
 2018-Dec-22 15:49 Am  03 06 02.078997 +34 29 06.85981
 2018-Dec-22 15:50 Am  03 06 02.148073 +34 29 06.58859
 2018-Dec-22 15:51 Am  03 06 02.217202 +34 29 06.31765
 2018-Dec-22 15:52 Am  03 06 02.286384 +34 29 06.04699
 2018-Dec-22 15:53 Am  03 06 02.355619 +34 29 05.77661
 2018-Dec-22 15:54 Am  03 06 02.424907 +34 29 05.50651
 2018-Dec-22 15:55 Am  03 06 02.494247 +34 29 05.23670
 2018-Dec-22 15:56 Am  03 06 02.563639 +34 29 04.96718
 2018-Dec-22 15:57 Am  03 06 02.633084 +34 29 04.69794
 2018-Dec-22 15:58 Am  03 06 02.702580 +34 29 04.42899
 2018-Dec-22 15:59 Am  03 06 02.772128 +34 29 04.16033
 2018-Dec-22 16:00 Am  03 06 02.841728 +34 29 03.89197
 2018-Dec-22 16:01 Am  03 06 02.911378 +34 29 03.62390
 2018-Dec-22 16:02 Nm  03 06 02.981080 +34 29 03.35613
 2018-Dec-22 16:03 Nm  03 06 03.050833 +34 29 03.08865
 2018-Dec-22 16:04 Nm  03 06 03.120637 +34 29 02.82147
 2018-Dec-22 16:05 Nm  03 06 03.190492 +34 29 02.55459
 2018-Dec-22 16:06 Nm  03 06 03.260397 +34 29 02.28802
 2018-Dec-22 16:07 Nm  03 06 03.330352 +34 29 02.02175
 2018-Dec-22 16:08 Nm  03 06 03.400357 +34 29 01.75578
 2018-Dec-22 16:09 Nm  03 06 03.470412 +34 29 01.49012
 2018-Dec-22 16:10 Nm  03 06 03.540516 +34 29 01.22476
 2018-Dec-22 16:11 Nm  03 06 03.610671 +34 29 00.95972
 2018-Dec-22 16:12 Nm  03 06 03.680874 +34 29 00.69498
 2018-Dec-22 16:13 Nm  03 06 03.751127 +34 29 00.43056
 2018-Dec-22 16:14 Nm  03 06 03.821428 +34 29 00.16645
 2018-Dec-22 16:15 Nm  03 06 03.891778 +34 28 59.90266
